{"type": "FeatureCollection", "features": [ {"type": "Feature", "properties": {"norad_id": 39122, "name": "EUTELSAT 117 WEST A", "group": "eutelsat", "lat": 0.017627634213739925, "lon": 163.8532978278182, "alt_km": 35786.003316911694, "timestamp": "2025-12-03T13:52:09.236953+00:00", "meta": {"OBJECT_NAME": "EUTELSAT 117 WEST A", "OBJECT_ID": "2013-012A", "EPOCH": "2025-12-03T08:49:20.417952", "MEAN_MOTION": 1.00271901, "ECCENTRICITY": 0.00031589, "INCLINATION": 0.0376, "RA_OF_ASC_NODE": 56.9809, "ARG_OF_PERICENTER": 196.7734, "MEAN_ANOMALY": 194.2496, "EPHEMERIS_TYPE": 0, "CLASSIFICATION_TYPE": "U", "NORAD_CAT_ID": 39122, "ELEMENT_SET_NO": 999, "REV_AT_EPOCH": 4647, "BSTAR": 0, "MEAN_MOTION_DOT": 5e-08, "MEAN_MOTION_DDOT": 0}, "tle": {"line1": "1 39122U 13012A   25337.36759743  .00000005  00000+0  00000+0 0  9991", "line2": "2 39122   0.0376  56.9809 0003158 196.7734 194.2496  1.00271901 46473"}}, "geometry": {"type": "Point", "coordinates": [163.8532978278182, 0.017627634213739925]}}, {"type": "Feature", "properties": {"norad_id": 39163, "name": "EUTELSAT 7B", "group": "eutelsat", "lat": -0.07696204279314707, "lon": -72.3401785855473, "alt_km": 35770.4972154716, "timestamp": "2025-12-03T13:52:09.236965+00:00", "meta": {"OBJECT_NAME": "EUTELSAT 7B", "OBJECT_ID": "2013-022A", "EPOCH": "2025-12-03T04:33:38.733696", "MEAN_MOTION": 1.00269662, "ECCENTRICITY": 0.00041713, "INCLINATION": 0.0677, "RA_OF_ASC_NODE": 359.3199, "ARG_OF_PERICENTER": 311.3455, "MEAN_ANOMALY": 197.0315, "EPHEMERIS_TYPE": 0, "CLASSIFICATION_TYPE": "U", "NORAD_CAT_ID": 39163, "ELEMENT_SET_NO": 999, "REV_AT_EPOCH": 4599, "BSTAR": 0, "MEAN_MOTION_DOT": 6.7e-07, "MEAN_MOTION_DDOT": 0}, "tle": {"line1": "1 39163U 13022A   25337.19003164  .00000067  00000+0  00000+0 0  9995", "line2": "2 39163   0.0677 359.3199 0004171 311.3455 197.0315  1.00269662 45993"}}, "geometry": {"type": "Point", "coordinates": [-72.3401785855473, -0.07696204279314707]}}, {"type": "Feature", "properties": {"norad_id": 39612, "name": "EXPRESS-AT1", "group": "eutelsat", "lat": 0.021272663793526287, "lon": -23.318363517750765, "alt_km": 35787.883531809166, "timestamp": "2025-12-03T13:52:09.236977+00:00", "meta": {"OBJECT_NAME": "EXPRESS-AT1", "OBJECT_ID": "2014-010A", "EPOCH": "2025-12-03T02:55:51.885120", "MEAN_MOTION": 1.00269797, "ECCENTRICITY": 3.076e-05, "INCLINATION": 0.016, "RA_OF_ASC_NODE": 295.0879, "ARG_OF_PERICENTER": 219.4551, "MEAN_ANOMALY": 17.6455, "EPHEMERIS_TYPE": 0, "CLASSIFICATION_TYPE": "U", "NORAD_CAT_ID": 39612, "ELEMENT_SET_NO": 999, "REV_AT_EPOCH": 4285, "BSTAR": 0, "MEAN_MOTION_DOT": 9.8e-07, "MEAN_MOTION_DDOT": 0}, "tle": {"line1": "1 39612U 14010A   25337.12212830  .00000098  00000+0  00000+0 0  9991", "line2": "2 39612   0.0160 295.0879 0000307 219.4551  17.6455  1.00269797 42855"}}, "geometry": {"type": "Point", "coordinates": [-23.318363517750765, 0.021272663793526287]}}, {"type": "Feature", "properties": {"norad_id": 39613, "name": "EXPRESS-AT2", "group": "eutelsat", "lat": 0.04119650447629355, "lon": 60.55595513164818, "alt_km": 35789.77035151281, "timestamp": "2025-12-03T13:52:09.236989+00:00", "meta": {"OBJECT_NAME": "EXPRESS-AT2", "OBJECT_ID": "2014-010B", "EPOCH": "2025-12-03T07:34:18.762816", "MEAN_MOTION": 1.00271833, "ECCENTRICITY": 0.00012635, "INCLINATION": 0.0176, "RA_OF_ASC_NODE": 311.6073, "ARG_OF_PERICENTER": 335.6229, "MEAN_ANOMALY": 38.6215, "EPHEMERIS_TYPE": 0, "CLASSIFICATION_TYPE": "U", "NORAD_CAT_ID": 39613, "ELEMENT_SET_NO": 999, "REV_AT_EPOCH": 4253, "BSTAR": 0, "MEAN_MOTION_DOT": -2.62e-06, "MEAN_MOTION_DDOT": 0}, "tle": {"line1": "1 39613U 14010B   25337.31549494 -.00000262  00000+0  00000+0 0  9996", "line2": "2 39613   0.0176 311.6073 0001263 335.6229  38.6215  1.00271833 42535"}}, "geometry": {"type": "Point", "coordinates": [60.55595513164818, 0.04119650447629355]}}, {"type": "Feature", "properties": {"norad_id": 39773, "name": "EUTELSAT 3B", "group": "eutelsat", "lat": -0.0756232277745106, "lon": -76.18058061929284, "alt_km": 35774.992530691045, "timestamp": "2025-12-03T13:52:09.237001+00:00", "meta": {"OBJECT_NAME": "EUTELSAT 3B", "OBJECT_ID": "2014-030A", "EPOCH": "2025-12-03T06:55:18.626592", "MEAN_MOTION": 1.00270763, "ECCENTRICITY": 0.00047688, "INCLINATION": 0.0633, "RA_OF_ASC_NODE": 1.7544, "ARG_OF_PERICENTER": 226.1102, "MEAN_ANOMALY": 311.4393, "EPHEMERIS_TYPE": 0, "CLASSIFICATION_TYPE": "U", "NORAD_CAT_ID": 39773, "ELEMENT_SET_NO": 999, "REV_AT_EPOCH": 4210, "BSTAR": 0, "MEAN_MOTION_DOT": 3.9e-07, "MEAN_MOTION_DDOT": 0}, "tle": {"line1": "1 39773U 14030A   25337.28841003  .00000039  00000+0  00000+0 0  9993", "line2": "2 39773   0.0633   1.7544 0004768 226.1102 311.4393  1.00270763 42100"}}, "geometry": {"type": "Point", "coordinates": [-76.18058061929284, -0.0756232277745106]}}, {"type": "Feature", "properties": {"norad_id": 40425, "name": "EUTELSAT 115 WEST B", "group": "eutelsat", "lat": 0.005014393301055387, "lon": 165.78801662043918, "alt_km": 35786.211502307815, "timestamp": "2025-12-03T13:52:09.237013+00:00", "meta": {"OBJECT_NAME": "EUTELSAT 115 WEST B", "OBJECT_ID": "2015-010B", "EPOCH": "2025-12-02T23:30:40.501152", "MEAN_MOTION": 1.00271793, "ECCENTRICITY": 3.39e-05, "INCLINATION": 0.0139, "RA_OF_ASC_NODE": 143.9078, "ARG_OF_PERICENTER": 285.8537, "MEAN_ANOMALY": 240.0881, "EPHEMERIS_TYPE": 0, "CLASSIFICATION_TYPE": "U", "NORAD_CAT_ID": 40425, "ELEMENT_SET_NO": 999, "REV_AT_EPOCH": 3942, "BSTAR": 0, "MEAN_MOTION_DOT": -6e-08, "MEAN_MOTION_DDOT": 0}, "tle": {"line1": "1 40425U 15010B   25336.97963543 -.00000006  00000+0  00000+0 0  9992", "line2": "2 40425   0.0139 143.9078 0000339 285.8537 240.0881  1.00271793 39426"}}, "geometry": {"type": "Point", "coordinates": [165.78801662043918, 0.005014393301055387]}}, {"type": "Feature", "properties": {"norad_id": 40875, "name": "EUTELSAT 8 WEST B", "group": "eutelsat", "lat": -0.08149973923349037, "lon": -87.29983197769207, "alt_km": 35769.47631612442, "timestamp": "2025-12-03T13:52:09.237024+00:00", "meta": {"OBJECT_NAME": "EUTELSAT 8 WEST B", "OBJECT_ID": "2015-039B", "EPOCH": "2025-12-03T06:52:03.938016", "MEAN_MOTION": 1.00271578, "ECCENTRICITY": 0.00041355, "INCLINATION": 0.0658, "RA_OF_ASC_NODE": 346.9952, "ARG_OF_PERICENTER": 267.8251, "MEAN_ANOMALY": 272.581, "EPHEMERIS_TYPE": 0, "CLASSIFICATION_TYPE": "U", "NORAD_CAT_ID": 40875, "ELEMENT_SET_NO": 999, "REV_AT_EPOCH": 3769, "BSTAR": 0, "MEAN_MOTION_DOT": -4.7e-07, "MEAN_MOTION_DDOT": 0}, "tle": {"line1": "1 40875U 15039B   25337.28615669 -.00000047  00000+0  00000+0 0  9995", "line2": "2 40875   0.0658 346.9952 0004135 267.8251 272.5810  1.00271578 37698"}}, "geometry": {"type": "Point", "coordinates": [-87.29983197769207, -0.08149973923349037]}}, {"type": "Feature", "properties": {"norad_id": 41310, "name": "EUTELSAT 9B", "group": "eutelsat", "lat": -0.048314587260353634, "lon": -70.31128609256406, "alt_km": 35767.42533016116, "timestamp": "2025-12-03T13:52:09.237036+00:00", "meta": {"OBJECT_NAME": "EUTELSAT 9B", "OBJECT_ID": "2016-005A", "EPOCH": "2025-12-03T06:56:55.971744", "MEAN_MOTION": 1.0027125, "ECCENTRICITY": 0.0004899, "INCLINATION": 0.0654, "RA_OF_ASC_NODE": 74.9813, "ARG_OF_PERICENTER": 189.776, "MEAN_ANOMALY": 280.8435, "EPHEMERIS_TYPE": 0, "CLASSIFICATION_TYPE": "U", "NORAD_CAT_ID": 41310, "ELEMENT_SET_NO": 999, "REV_AT_EPOCH": 3615, "BSTAR": 0, "MEAN_MOTION_DOT": 8e-07, "MEAN_MOTION_DDOT": 0}, "tle": {"line1": "1 41310U 16005A   25337.28953671  .00000080  00000+0  00000+0 0  9998", "line2": "2 41310   0.0654  74.9813 0004899 189.7760 280.8435  1.00271250 36159"}}, "geometry": {"type": "Point", "coordinates": [-70.31128609256406, -0.048314587260353634]}}, {"type": "Feature", "properties": {"norad_id": 41382, "name": "EUTELSAT 65 WEST A", "group": "eutelsat", "lat": -0.062352495065922574, "lon": -144.54334596726068, "alt_km": 35777.91404270544, "timestamp": "2025-12-03T13:52:09.237048+00:00", "meta": {"OBJECT_NAME": "EUTELSAT 65 WEST A", "OBJECT_ID": "2016-014A", "EPOCH": "2025-12-03T06:35:50.491680", "MEAN_MOTION": 1.00270713, "ECCENTRICITY": 0.00027768, "INCLINATION": 0.0501, "RA_OF_ASC_NODE": 343.9233, "ARG_OF_PERICENTER": 275.2871, "MEAN_ANOMALY": 206.918, "EPHEMERIS_TYPE": 0, "CLASSIFICATION_TYPE": "U", "NORAD_CAT_ID": 41382, "ELEMENT_SET_NO": 999, "REV_AT_EPOCH": 3557, "BSTAR": 0, "MEAN_MOTION_DOT": -2.57e-06, "MEAN_MOTION_DDOT": 0}, "tle": {"line1": "1 41382U 16014A   25337.27488995 -.00000257  00000+0  00000+0 0  9995", "line2": "2 41382   0.0501 343.9233 0002776 275.2871 206.9180  1.00270713 35574"}}, "geometry": {"type": "Point", "coordinates": [-144.54334596726068, -0.062352495065922574]}}, {"type": "Feature", "properties": {"norad_id": 41589, "name": "EUTELSAT 117 WEST B", "group": "eutelsat", "lat": 0.007840508547761495, "lon": 163.67387908265974, "alt_km": 35786.356580450934, "timestamp": "2025-12-03T13:52:09.237075+00:00", "meta": {"OBJECT_NAME": "EUTELSAT 117 WEST B", "OBJECT_ID": "2016-038B", "EPOCH": "2025-12-02T23:30:03.060576", "MEAN_MOTION": 1.00267861, "ECCENTRICITY": 1.928e-05, "INCLINATION": 0.0046, "RA_OF_ASC_NODE": 146.1916, "ARG_OF_PERICENTER": 23.0604, "MEAN_ANOMALY": 138.3396, "EPHEMERIS_TYPE": 0, "CLASSIFICATION_TYPE": "U", "NORAD_CAT_ID": 41589, "ELEMENT_SET_NO": 999, "REV_AT_EPOCH": 3469, "BSTAR": 0, "MEAN_MOTION_DOT": 8e-08, "MEAN_MOTION_DDOT": 0}, "tle": {"line1": "1 41589U 16038B   25336.97920209  .00000008  00000+0  00000+0 0  9998", "line2": "2 41589   0.0046 146.1916 0000192  23.0604 138.3396  1.00267861 34690"}}, "geometry": {"type": "Point", "coordinates": [163.67387908265974, 0.007840508547761495]}}]}